{"type": "FeatureCollection", "features": [ {"type": "Feature", "properties": {"norad_id": 33153, "name": "INTELSAT 25 (IS-25)", "group": "intelsat", "lat": -2.2032531160396136, "lon": -0.3014952108357833, "alt_km": 35789.728215715775, "timestamp": "2025-12-11T20:41:14.754774+00:00", "meta": {"OBJECT_NAME": "INTELSAT 25 (IS-25)", "OBJECT_ID": "2008-034A", "EPOCH": "2025-12-11T11:38:55.765824", "MEAN_MOTION": 1.00271696, "ECCENTRICITY": 0.0005161, "INCLINATION": 2.2248, "RA_OF_ASC_NODE": 82.6598, "ARG_OF_PERICENTER": 178.3273, "MEAN_ANOMALY": 322.6991, "EPHEMERIS_TYPE": 0, "CLASSIFICATION_TYPE": "U", "NORAD_CAT_ID": 33153, "ELEMENT_SET_NO": 999, "REV_AT_EPOCH": 6381, "BSTAR": 0, "MEAN_MOTION_DOT": -2.17e-06, "MEAN_MOTION_DDOT": 0}, "tle": {"line1": "1 33153U 08034A   25345.48536766 -.00000217  00000+0  00000+0 0  9993", "line2": "2 33153   2.2248  82.6598 0005161 178.3273 322.6991  1.00271696 63819"}}, "geometry": {"type": "Point", "coordinates": [-0.3014952108357833, -2.2032531160396136]}}, {"type": "Feature", "properties": {"norad_id": 33376, "name": "GALAXY 19 (G-19)", "group": "intelsat", "lat": -0.026712164051084338, "lon": -65.86025272827018, "alt_km": 35777.115903341015, "timestamp": "2025-12-11T20:41:14.754785+00:00", "meta": {"OBJECT_NAME": "GALAXY 19 (G-19)", "OBJECT_ID": "2008-045A", "EPOCH": "2025-12-11T13:03:02.710368", "MEAN_MOTION": 1.00269689, "ECCENTRICITY": 0.00026763, "INCLINATION": 0.0171, "RA_OF_ASC_NODE": 347.0114, "ARG_OF_PERICENTER": 274.7909, "MEAN_ANOMALY": 277.4643, "EPHEMERIS_TYPE": 0, "CLASSIFICATION_TYPE": "U", "NORAD_CAT_ID": 33376, "ELEMENT_SET_NO": 999, "REV_AT_EPOCH": 6302, "BSTAR": 0, "MEAN_MOTION_DOT": 0, "MEAN_MOTION_DDOT": 0}, "tle": {"line1": "1 33376U 08045A   25345.54378137  .00000000  00000+0  00000+0 0  9994", "line2": "2 33376   0.0171 347.0114 0002676 274.7909 277.4643  1.00269689 63027"}}, "geometry": {"type": "Point", "coordinates": [-65.86025272827018, -0.026712164051084338]}}, {"type": "Feature", "properties": {"norad_id": 35493, "name": "FM-5", "group": "intelsat", "lat": -0.0031302239643208295, "lon": -55.01937817908337, "alt_km": 35788.12029925648, "timestamp": "2025-12-11T20:41:14.754797+00:00", "meta": {"OBJECT_NAME": "FM-5", "OBJECT_ID": "2009-034A", "EPOCH": "2025-12-11T09:40:42.954816", "MEAN_MOTION": 1.00270591, "ECCENTRICITY": 5.374e-05, "INCLINATION": 0.0147, "RA_OF_ASC_NODE": 294.8503, "ARG_OF_PERICENTER": 232.2945, "MEAN_ANOMALY": 332.2538, "EPHEMERIS_TYPE": 0, "CLASSIFICATION_TYPE": "U", "NORAD_CAT_ID": 35493, "ELEMENT_SET_NO": 999, "REV_AT_EPOCH": 4476, "BSTAR": 0, "MEAN_MOTION_DOT": -1.93e-06, "MEAN_MOTION_DDOT": 0}, "tle": {"line1": "1 35493U 09034A   25345.40327494 -.00000193  00000+0  00000+0 0  9994", "line2": "2 35493   0.0147 294.8503 0000537 232.2945 332.2538  1.00270591 44763"}}, "geometry": {"type": "Point", "coordinates": [-55.01937817908337, -0.0031302239643208295]}}, {"type": "Feature", "properties": {"norad_id": 36097, "name": "INTELSAT 14 (IS-14)", "group": "intelsat", "lat": -0.006162211356594573, "lon": -13.853652733681008, "alt_km": 35784.27921485794, "timestamp": "2025-12-11T20:41:14.754808+00:00", "meta": {"OBJECT_NAME": "INTELSAT 14 (IS-14)", "OBJECT_ID": "2009-064A", "EPOCH": "2025-12-11T00:50:38.714784", "MEAN_MOTION": 1.00270021, "ECCENTRICITY": 0.00026105, "INCLINATION": 0.0102, "RA_OF_ASC_NODE": 18.0466, "ARG_OF_PERICENTER": 250.6315, "MEAN_ANOMALY": 138.984, "EPHEMERIS_TYPE": 0, "CLASSIFICATION_TYPE": "U", "NORAD_CAT_ID": 36097, "ELEMENT_SET_NO": 999, "REV_AT_EPOCH": 5871, "BSTAR": 0, "MEAN_MOTION_DOT": -2.68e-06, "MEAN_MOTION_DDOT": 0}, "tle": {"line1": "1 36097U 09064A   25345.03517031 -.00000268  00000+0  00000+0 0  9998", "line2": "2 36097   0.0102  18.0466 0002610 250.6315 138.9840  1.00270021 58713"}}, "geometry": {"type": "Point", "coordinates": [-13.853652733681008, -0.006162211356594573]}}, {"type": "Feature", "properties": {"norad_id": 36106, "name": "INTELSAT 15 (IS-15)", "group": "intelsat", "lat": 0.005583306908780051, "lon": 116.2534263708696, "alt_km": 35795.40472982864, "timestamp": "2025-12-11T20:41:14.754820+00:00", "meta": {"OBJECT_NAME": "INTELSAT 15 (IS-15)", "OBJECT_ID": "2009-067A", "EPOCH": "2025-12-11T01:39:38.885184", "MEAN_MOTION": 1.00270749, "ECCENTRICITY": 0.00023872, "INCLINATION": 0.024, "RA_OF_ASC_NODE": 289.4565, "ARG_OF_PERICENTER": 339.7099, "MEAN_ANOMALY": 280.9264, "EPHEMERIS_TYPE": 0, "CLASSIFICATION_TYPE": "U", "NORAD_CAT_ID": 36106, "ELEMENT_SET_NO": 999, "REV_AT_EPOCH": 3934, "BSTAR": 0, "MEAN_MOTION_DOT": -1.79e-06, "MEAN_MOTION_DDOT": 0}, "tle": {"line1": "1 36106U 09067A   25345.06920006 -.00000179  00000+0  00000+0 0  9996", "line2": "2 36106   0.0240 289.4565 0002387 339.7099 280.9264  1.00270749 39343"}}, "geometry": {"type": "Point", "coordinates": [116.2534263708696, 0.005583306908780051]}}, {"type": "Feature", "properties": {"norad_id": 36131, "name": "DIRECTV 12", "group": "intelsat", "lat": 0.0037852840345690567, "lon": -71.602424825301, "alt_km": 35785.4953456301, "timestamp": "2025-12-11T20:41:14.754838+00:00", "meta": {"OBJECT_NAME": "DIRECTV 12", "OBJECT_ID": "2009-075A", "EPOCH": "2025-12-10T23:19:34.847904", "MEAN_MOTION": 1.0027091, "ECCENTRICITY": 4.062e-05, "INCLINATION": 0.04, "RA_OF_ASC_NODE": 149.0502, "ARG_OF_PERICENTER": 199.7409, "MEAN_ANOMALY": 338.3242, "EPHEMERIS_TYPE": 0, "CLASSIFICATION_TYPE": "U", "NORAD_CAT_ID": 36131, "ELEMENT_SET_NO": 999, "REV_AT_EPOCH": 4466, "BSTAR": 0, "MEAN_MOTION_DOT": -9.8e-07, "MEAN_MOTION_DDOT": 0}, "tle": {"line1": "1 36131U 09075A   25344.97193111 -.00000098  00000+0  00000+0 0  9991", "line2": "2 36131   0.0400 149.0502 0000406 199.7409 338.3242  1.00270910 44665"}}, "geometry": {"type": "Point", "coordinates": [-71.602424825301, 0.0037852840345690567]}}, {"type": "Feature", "properties": {"norad_id": 36397, "name": "INTELSAT 16 (IS-16)", "group": "intelsat", "lat": -0.006348206041415535, "lon": -45.053263711960234, "alt_km": 35780.527103849534, "timestamp": "2025-12-11T20:41:14.754849+00:00", "meta": {"OBJECT_NAME": "INTELSAT 16 (IS-16)", "OBJECT_ID": "2010-006A", "EPOCH": "2025-12-11T13:08:54.648672", "MEAN_MOTION": 1.00272356, "ECCENTRICITY": 0.00021373, "INCLINATION": 0.0099, "RA_OF_ASC_NODE": 322.6692, "ARG_OF_PERICENTER": 299.1512, "MEAN_ANOMALY": 299.7174, "EPHEMERIS_TYPE": 0, "CLASSIFICATION_TYPE": "U", "NORAD_CAT_ID": 36397, "ELEMENT_SET_NO": 999, "REV_AT_EPOCH": 5777, "BSTAR": 0, "MEAN_MOTION_DOT": -2.38e-06, "MEAN_MOTION_DDOT": 0}, "tle": {"line1": "1 36397U 10006A   25345.54785473 -.00000238  00000+0  00000+0 0  9999", "line2": "2 36397   0.0099 322.6692 0002137 299.1512 299.7174  1.00272356 57771"}}, "geometry": {"type": "Point", "coordinates": [-45.053263711960234, -0.006348206041415535]}}, {"type": "Feature", "properties": {"norad_id": 37185, "name": "XM-5", "group": "intelsat", "lat": -0.010966378409341842, "lon": -84.07341194841281, "alt_km": 35790.48810528791, "timestamp": "2025-12-11T20:41:14.754861+00:00", "meta": {"OBJECT_NAME": "XM-5", "OBJECT_ID": "2010-053A", "EPOCH": "2025-12-10T23:47:38.631840", "MEAN_MOTION": 1.00269536, "ECCENTRICITY": 0.00014999, "INCLINATION": 0.0597, "RA_OF_ASC_NODE": 272.8413, "ARG_OF_PERICENTER": 236.063, "MEAN_ANOMALY": 172.7615, "EPHEMERIS_TYPE": 0, "CLASSIFICATION_TYPE": "U", "NORAD_CAT_ID": 37185, "ELEMENT_SET_NO": 999, "REV_AT_EPOCH": 5559, "BSTAR": 0, "MEAN_MOTION_DOT": -1.7e-07, "MEAN_MOTION_DDOT": 0}, "tle": {"line1": "1 37185U 10053A   25344.99141935 -.00000017  00000+0  00000+0 0  9999", "line2": "2 37185   0.0597 272.8413 0001499 236.0630 172.7615  1.00269536 55592"}}, "geometry": {"type": "Point", "coordinates": [-84.07341194841281, -0.010966378409341842]}}, {"type": "Feature", "properties": {"norad_id": 37238, "name": "INTELSAT 17 (IS-17)", "group": "intelsat", "lat": 0.016189602248664968, "lon": 97.12661680934855, "alt_km": 35796.509036806965, "timestamp": "2025-12-11T20:41:14.754872+00:00", "meta": {"OBJECT_NAME": "INTELSAT 17 (IS-17)", "OBJECT_ID": "2010-065B", "EPOCH": "2025-12-11T13:49:28.263648", "MEAN_MOTION": 1.0027114, "ECCENTRICITY": 0.000251, "INCLINATION": 0.0102, "RA_OF_ASC_NODE": 303.071, "ARG_OF_PERICENTER": 319.0071, "MEAN_ANOMALY": 91.8358, "EPHEMERIS_TYPE": 0, "CLASSIFICATION_TYPE": "U", "NORAD_CAT_ID": 37238, "ELEMENT_SET_NO": 999, "REV_AT_EPOCH": 5136, "BSTAR": 0, "MEAN_MOTION_DOT": 6e-08, "MEAN_MOTION_DDOT": 0}, "tle": {"line1": "1 37238U 10065B   25345.57602157  .00000006  00000+0  00000+0 0  9991", "line2": "2 37238   0.0102 303.0710 0002510 319.0071  91.8358  1.00271140 51366"}}, "geometry": {"type": "Point", "coordinates": [97.12661680934855, 0.016189602248664968]}}, {"type": "Feature", "properties": {"norad_id": 37392, "name": "INTELSAT 28 (IS-28)", "group": "intelsat", "lat": -1.3123231116780099, "lon": -0.5242236687283095, "alt_km": 35787.26237735541, "timestamp": "2025-12-11T20:41:14.754884+00:00", "meta": {"OBJECT_NAME": "INTELSAT 28 (IS-28)", "OBJECT_ID": "2011-016A", "EPOCH": "2025-12-11T08:13:30.156096", "MEAN_MOTION": 1.00272023, "ECCENTRICITY": 0.00038929, "INCLINATION": 1.3213, "RA_OF_ASC_NODE": 85.0725, "ARG_OF_PERICENTER": 180.836, "MEAN_ANOMALY": 266.0763, "EPHEMERIS_TYPE": 0, "CLASSIFICATION_TYPE": "U", "NORAD_CAT_ID": 37392, "ELEMENT_SET_NO": 999, "REV_AT_EPOCH": 5140, "BSTAR": 0, "MEAN_MOTION_DOT": -2.18e-06, "MEAN_MOTION_DDOT": 0}, "tle": {"line1": "1 37392U 11016A   25345.34271014 -.00000218  00000+0  00000+0 0  9994", "line2": "2 37392   1.3213  85.0725 0003892 180.8360 266.0763  1.00272023 51408"}}, "geometry": {"type": "Point", "coordinates": [-0.5242236687283095, -1.3123231116780099]}}]}